C/2016 U1 (NEOWISE),h,01/13.8829/2017,46.3288,61.5290,162.8236,1.000406,0.322996,2000,17.0,4.0
# From MPC106345
C/2016 VZ18 (PANSTARRS),e,23.9781,98.9203,36.4124,164.4208,0.0004675,0.99443796,0.0000,03/05.5848/2017,2000,g 19.5,4.0
# From MPC106345
P/2016 WM48 (Lemmon),e,117.4439,59.9030,36.0825,8.165847,0.0422379,0.78390301,58.4641,12/09.0/2020,2000,g 15.0,4.0
# From MPC119995
C/2016 X1 (Lemmon),e,26.4533,256.4105,224.5037,1301,0.0000210,0.99418839,0.0000,04/28.6648/2019,2000,g  6.0,4.0
# From MPC108594
C/2017 A1 (PANSTARRS),e,49.7921,121.0447,2.0227,76.31670,0.0014783,0.96998189,1.9260,12/09.0/2020,2000,g 13.0,4.0
# From MPC108594
C/2017 A3 (Elenin),e,98.5311,97.8999,304.0074,43.45326,0.0034409,0.91147634,4.8453,12/09.0/2020,2000,g  9.5,4.0
# From MPC114598
C/2017 AB5 (PANSTARRS),e,32.4399,42.6433,78.3348,2409,0.0000083,0.99617489,0.0000,02/15.5727/2018,2000,g  5.5,4.0
# From MPC119995
C/2017 B3 (LINEAR),h,02/02.5981/2019,54.1706,2.1796,284.7920,1.001675,3.922843,2000,6.0,4.0
# From MPC103847
P/2017 B4 (PANSTARRS),e,20.0584,121.4578,11.0197,4.410520,0.1064068,0.36495152,359.9130,01/05.0/2017,2000,g 14.5,4.0
# From MPC104793
C/2017 C1 (NEOWISE),e,65.7578,357.5382,110.0780,20.58802,0.0105507,0.92716852,14.9878,12/09.0/2020,2000,g 18.0,4.0
# From MPC107685
C/2017 C2 (PANSTARRS),e,118.5862,249.7807,138.5996,96.37846,0.0010417,0.97486017,0.0000,01/21.5079/2017,2000,g 14.0,4.0
# From MPC104793
P/2017 D1 (Fuls),e,20.7561,82.1803,8.0565,4.829919,0.0928526,0.43629960,151.2348,12/09.0/2020,2000,g 14.0,4.0
# From MPC112391
C/2017 D2 (Barros),e,31.2574,330.9582,334.5176,4415,0.0000034,0.99943604,0.0000,07/14.8920/2017,2000,g 11.0,4.0
# From MPC114598
C/2017 D3 (ATLAS),h,04/27.3754/2017,125.5844,186.6746,340.8600,1.002189,4.972904,2000,8.0,4.0
# From MPC110495
P/2017 D4 (PANSTARRS),e,10.5298,264.9382,212.2891,7.563661,0.0473812,0.62835880,73.7112,12/09.0/2020,2000,g 13.0,4.0
# From MPC104794
C/2017 D5 (PANSTARRS),e,131.0516,92.7198,287.7331,114.5243,0.0008042,0.98114011,0.0000,01/09.5525/2017,2000,g 16.0,4.0
# From MPC106346
C/2017 E1 (Borisov),h,04/10.5881/2017,14.5706,142.5758,152.6849,1.003094,0.902048,2000,14.0,4.0
# From MPC109144
C/2017 E2 (Tsuchinshan),e,79.0753,11.6120,89.3632,21.52932,0.0098664,0.89083476,16.5008,12/09.0/2020,2000,g 11.5,4.0
# From MPC115882
C/2017 E3 (PANSTARRS),h,06/07.9764/2017,70.6375,220.7455,334.5167,1.006656,5.938206,2000,6.5,4.0
# From MPC105239
C/2017 E4 (Lovejoy),h,04/23.6021/2017,88.0771,223.0148,87.0648,1.001499,0.491073,2000,17.0,4.0
# From MPC105239
C/2017 E5 (Lemmon),e,122.6678,206.3542,306.9319,396.3796,0.0001249,0.99548868,0.0000,06/10.7419/2016,2000,g 13.0,4.0
# From MPC111769
C/2017 F1 (Lemmon),h,11/30.1739/2017,146.4634,158.7864,64.7584,1.003526,4.496362,2000,10.5,4.0
# From MPC114598
C/2017 F2 (PANSTARRS),h,11/27.3767/2017,42.5220,38.6747,135.0340,1.003644,6.931851,2000,7.5,4.0
# From MPC104794
P/2017 G1 (PANSTARRS),e,4.7741,249.6279,224.5398,7.287661,0.0500982,0.65294753,84.4909,12/09.0/2020,2000,g 13.5,4.0
# From MPC108595
P/2017 G2 (PANSTARRS),e,47.9462,79.7878,105.5581,8.067985,0.0430087,0.64819026,54.9012,12/09.0/2020,2000,g 13.0,4.0
# From MPC109144
C/2017 G3 (PANSTARRS),e,159.0550,279.4775,73.1305,313.5802,0.0001775,0.99174278,0.0000,04/15.7807/2017,2000,g 14.0,4.0
# From MPC115882
C/2017 K1 (PANSTARRS),h,03/17.4771/2018,154.0142,225.6672,4.4039,1.002272,7.289569,2000,7.0,4.0
# From MPC119995
C/2017 K2 (PANSTARRS),h,12/19.8388/2022,87.5476,88.2540,236.1776,1.000482,1.798320,2000,1.5,4.0
# From MPC106346
P/2017 K3 (Gasparovic),e,4.2735,354.2867,253.4796,5.582034,0.0747335,0.58054079,96.2293,12/09.0/2020,2000,g 14.5,4.0
# From MPC114598
C/2017 K4 (ATLAS),e,16.6803,298.8692,15.2400,28.51907,0.0064714,0.90703685,6.8955,12/09.0/2020,2000,g 10.0,4.0
# From MPC119995
C/2017 K5 (PANSTARRS),h,03/26.2262/2020,82.2411,102.3733,171.9725,1.006575,7.679804,2000,5.0,4.0
# From MPC114599
C/2017 K6 (Jacques),e,57.2481,85.0336,303.7558,1070,0.0000282,0.99813306,0.0000,01/03.3765/2018,2000,g 11.0,4.0
# From MPC110083
C/2017 M3 (PANSTARRS),e,77.5548,7.0156,110.3394,167.0166,0.0004566,0.97211539,0.0000,04/28.1216/2017,2000,g 10.5,4.0
# From MPC118093
C/2017 M4 (ATLAS),h,01/17.9121/2019,105.6474,65.8757,167.5886,1.001221,3.252652,2000,6.0,4.0
# From MPC118841
C/2017 M5 (TOTAS),h,06/04.1440/2018,15.8779,216.2815,92.7566,1.005359,5.993804,2000,6.5,4.0
# From MPC114599
C/2017 O1 (ASASSN),e,39.9041,25.7599,20.8443,357.0470,0.0001461,0.99581389,0.0000,10/14.8773/2017,2000,g 11.0,4.0
# From MPC114599
P/2017 P1 (PANSTARRS),e,7.6966,221.3996,122.2895,7.894682,0.0444326,0.31070854,40.1633,12/09.0/2020,2000,g 10.0,4.0
# From MPC114599
C/2017 P2 (PANSTARRS),e,50.0541,165.4861,132.3639,2134,0.0000100,0.99884443,0.0000,12/06.6585/2017,2000,g 10.0,4.0
# From MPC114599
P/2017 R1 (PANSTARRS),e,2.5740,143.6179,178.5819,4.135090,0.1172132,0.19564912,156.9440,12/09.0/2020,2000,g 13.5,4.0
# From MPC108595
C/2017 S2 (PANSTARRS),e,12.6774,62.3991,305.9614,20.54059,0.0105873,0.82418310,12.6757,12/09.0/2020,2000,g 13.0,4.0
# From MPC114599
C/2017 S3 (PANSTARRS),h,08/16.0283/2018,99.1427,171.1972,255.8393,1.000054,0.208066,2000,11.0,4.0
# From MPC114599
P/2017 S5 (ATLAS),e,11.8510,252.3754,99.8568,3.168256,0.1747728,0.31412003,214.8383,12/09.0/2020,2000,g 14.0,4.0
# From MPC109591
C/2017 S6 (Catalina),h,02/26.4600/2018,152.8674,131.0407,134.8138,1.000655,1.543768,2000,12.5,4.0
# From MPC114599
C/2017 S7 (Lemmon),h,05/25.2534/2017,124.2296,262.7809,187.5852,1.000431,7.607656,2000,7.0,4.0
# From MPC114599
P/2017 S8 (PANSTARRS),e,29.8193,191.6448,254.7508,2.779515,0.2126917,0.39211147,222.6151,12/09.0/2020,2000,g 16.0,4.0
# From MPC107050
P/2017 S9 (PANSTARRS),e,14.1439,146.2216,237.7130,3.153727,0.1759818,0.30511670,217.2921,12/09.0/2020,2000,g 17.0,4.0
# From MPC114600
C/2017 T1 (Heinze),e,96.8423,102.3316,96.9343,28470,0.0000002,0.99997954,0.0000,02/21.2444/2018,2000,g 14.5,4.0
# From MPC119996
C/2017 T2 (PANSTARRS),e,57.2288,64.3777,93.0010,3440,0.0000049,0.99953048,0.0000,05/04.9549/2020,2000,g  5.0,4.0
# From MPC114600
C/2017 T3 (ATLAS),e,88.0636,230.0869,246.8313,1243,0.0000225,0.99933653,0.0000,07/18.9299/2018,2000,g 10.0,4.0
# From MPC115882
P/2017 TW13 (Lemmon),e,44.8495,322.2944,120.0074,7.145128,0.0516047,0.70941463,46.5556,12/09.0/2020,2000,g 15.0,2.0
# From MPC114600
C/2017 U2 (Fuls),e,95.3897,149.7092,147.7901,3512,0.0000047,0.99809083,0.0000,08/28.2503/2017,2000,g  9.0,4.0
# From MPC114600
P/2017 U3 (PANSTARRS),e,15.9155,165.1075,296.9552,4.930630,0.0900224,0.09889385,54.1818,12/09.0/2020,2000,g 11.0,4.0
# From MPC114600
C/2017 U4 (PANSTARRS),h,09/23.6391/2018,158.2176,245.9453,159.0458,1.002664,7.721547,2000,7.0,4.0
# From MPC114600
C/2017 U5 (PANSTARRS),e,18.9722,163.0850,262.0376,16.87540,0.0142175,0.74392399,15.4482,12/09.0/2020,2000,g 12.0,4.0
# From MPC118841
C/2017 U7,h,09/14.0277/2019,142.5926,276.2449,326.2954,1.001064,6.422202,2000,8.3,2.0
# From MPC114600
C/2017 W2 (Leonard),e,98.1990,312.8410,169.0545,13.66669,0.0195078,0.71075142,22.1149,12/09.0/2020,2000,g 11.0,4.0
# From MPC114601
P/2017 W3 (Gibbs),e,18.1703,210.3157,327.7564,7.843614,0.0448673,0.50782256,45.4828,12/09.0/2020,2000,g 10.5,4.0
# From MPC115883
C/2017 X1 (PANSTARRS),e,31.3036,251.1298,283.2881,31.36911,0.0056098,0.85115915,5.0917,12/09.0/2020,2000,g 10.0,4.0
# From MPC117069
C/2017 Y1 (PANSTARRS),e,55.2666,307.5306,134.3219,1848,0.0000124,0.99799113,0.0000,08/31.1458/2017,2000,g 11.5,4.0
# From MPC118841
C/2017 Y2 (PANSTARRS),h,11/04.6376/2020,128.4142,65.9928,147.8751,1.000995,4.632095,2000,15.0,4.0
# From MPC111770
P/2017 Y3 (Leonard),e,27.5625,153.8506,67.5957,9.847903,0.0318925,0.87017402,32.9205,12/09.0/2020,2000,g 16.5,4.0
# From MPC114601
C/2018 A1 (PANSTARRS),e,53.6045,336.6485,96.2780,25.10545,0.0078352,0.90379385,8.9761,12/09.0/2020,2000,g 12.5,4.0
# From MPC119996
C/2018 A3 (ATLAS),e,139.5453,194.2940,86.3940,470.8686,0.0000965,0.99304346,0.0000,01/12.6291/2019,2000,g  8.5,4.0
# From MPC114601
C/2018 A4 (PANSTARRS),e,3.1483,97.6300,356.0492,12.20652,0.0231109,0.80336447,21.6203,12/09.0/2020,2000,g 14.0,4.0
# From MPC109147
P/2018 A5 (PANSTARRS),e,23.5801,87.8253,359.5803,5.635976,0.0736632,0.52225350,86.4012,12/09.0/2020,2000,g 15.0,4.0
# From MPC119996
C/2018 A6 (Gibbs),e,76.9774,340.3775,264.5586,15.32604,0.0164270,0.80302748,8.4391,12/09.0/2020,2000,g  9.0,4.0
# From MPC118841
C/2018 B1 (Lemmon),h,03/29.5624/2018,162.4201,133.1908,68.3097,1.001085,5.115878,2000,9.0,4.0
# From MPC114601
P/2018 C1 (Lemmon-Read),e,5.1235,270.3861,235.6625,5.653878,0.0733136,0.53349579,74.5351,12/09.0/2020,2000,g 13.5,4.0
# From MPC114601
C/2018 C2 (Lemmon),h,06/01.7687/2018,34.4592,91.1456,134.1132,1.000805,1.957920,2000,13.0,4.0
# From MPEC 2020-AA5
C/2018 DO4 (Lemmon),e,160.4741,251.1413,175.9912,25.74995,0.0075429,0.90652864,3.6105,12/09.0/2020,2000,g 11.0,4.0
# From MPC114602
C/2018 E1 (ATLAS),e,72.5125,146.8614,299.4051,53.96852,0.0024860,0.94992460,2.4032,12/09.0/2020,2000,g 10.5,4.0
# From MPC114602
C/2018 E2 (Barros),e,97.7132,67.1966,277.4706,3963,0.0000040,0.99901083,0.0000,12/23.9973/2017,2000,g 10.5,4.0
# From MPC114602
C/2018 EN4 (NEOWISE),e,81.6361,136.1445,35.0073,18.23000,0.0126626,0.92045501,11.5986,12/09.0/2020,2000,g 15.0,4.0
# From MPC114602
C/2018 EF9 (Lemmon),e,84.6443,172.5678,72.6202,558.9594,0.0000746,0.99721350,0.0000,05/22.8492/2018,2000,g 18.0,2.0
# From MPC115883
C/2018 F1 (Grauer),e,46.0768,177.2759,71.6356,287.3825,0.0002023,0.98958149,0.0000,12/13.8271/2018,2000,g 11.5,4.0
# From MPC110084
C/2018 F3 (Johnson),p,08/15.2314/2017,105.5348,293.0113,2.483172,173.0311,2000,13.0,4.0
# From MPC119996
C/2018 F4 (PANSTARRS),h,12/04.1451/2019,78.0946,26.5126,263.2274,1.001360,3.440205,2000,11.9,2.0
# From MPC114602
P/2018 H2 (PANSTARRS),e,7.3881,68.4095,119.9835,4.393774,0.1070157,0.53998148,112.5126,12/09.0/2020,2000,g 16.6,2.0
# From MPC114602
C/2018 K1 (Weiland),e,164.1959,260.0361,325.0650,29.94552,0.0060146,0.93716642,5.8776,12/09.0/2020,2000,g 14.9,4.0
# From MPC118094
